{
  "type": "FeatureCollection",
  "features": [
    {
      "type": "Feature",
      "properties": {
        "norad_id": 66582,
        "name": "STARLINK-35746",
        "group": "last-30-days",
        "lat": 1.5966634314982382,
        "lon": 40.34427492032563,
        "alt_km": 435.08601226864994,
        "timestamp": "2025-12-26T19:22:37.603699+00:00",
        "meta_object_name": "STARLINK-35746",
        "meta_object_id": "2025-268AB",
        "meta_epoch": "2025-12-26T14:00:04.000032",
        "meta_mean_motion": 15.44459454,
        "meta_eccentricity": 0.00010288,
        "meta_inclination": 43.0006,
        "meta_ra_of_asc_node": 39.9277,
        "meta_arg_of_pericenter": 288.845,
        "meta_mean_anomaly": 267.0216,
        "meta_ephemeris_type": 0,
        "meta_classification_type": "U",
        "meta_norad_cat_id": 66582,
        "meta_element_set_no": 999,
        "meta_rev_at_epoch": 601,
        "meta_bstar": -0.046295522,
        "meta_mean_motion_dot": -0.01961016,
        "meta_mean_motion_ddot": 0,
        "tle_line1": "1 66582U 25268AB  25360.58337963 -.01961016  00000+0 -46296-1 0  9993",
        "tle_line2": "2 66582  43.0006  39.9277 0001028 288.8450 267.0216 15.44459454  6011"
      },
      "geometry": {
        "type": "Point",
        "coordinates": [
          40.34427492032563,
          1.5966634314982382
        ]
      }
    },
    {
      "type": "Feature",
      "properties": {
        "norad_id": 66583,
        "name": "STARLINK-35941",
        "group": "last-30-days",
        "lat": 8.583382200713118,
        "lon": 47.92630693561482,
        "alt_km": 431.73708876492856,
        "timestamp": "2025-12-26T19:22:37.603709+00:00",
        "meta_object_name": "STARLINK-35941",
        "meta_object_id": "2025-268AC",
        "meta_epoch": "2025-12-26T14:00:04.000032",
        "meta_mean_motion": 15.45287017,
        "meta_eccentricity": 9.889e-05,
        "meta_inclination": 43.0001,
        "meta_ra_of_asc_node": 39.9038,
        "meta_arg_of_pericenter": 292.5139,
        "meta_mean_anomaly": 272.9791,
        "meta_ephemeris_type": 0,
        "meta_classification_type": "U",
        "meta_norad_cat_id": 66583,
        "meta_element_set_no": 999,
        "meta_rev_at_epoch": 607,
        "meta_bstar": -0.044453357,
        "meta_mean_motion_dot": -0.01939926,
        "meta_mean_motion_ddot": 0,
        "tle_line1": "1 66583U 25268AC  25360.58337963 -.01939926  00000+0 -44453-1 0  9992",
        "tle_line2": "2 66583  43.0001  39.9038 0000988 292.5139 272.9791 15.45287017  6076"
      },
      "geometry": {
        "type": "Point",
        "coordinates": [
          47.92630693561482,
          8.583382200713118
        ]
      }
    },
    {
      "type": "Feature",
      "properties": {
        "norad_id": 66584,
        "name": "STARLINK-35939",
        "group": "last-30-days",
        "lat": 14.972688834446092,
        "lon": 55.25840915884028,
        "alt_km": 428.4049354984618,
        "timestamp": "2025-12-26T19:22:37.603720+00:00",
        "meta_object_name": "STARLINK-35939",
        "meta_object_id": "2025-268AD",
        "meta_epoch": "2025-12-26T14:00:04.000032",
        "meta_mean_motion": 15.4614065,
        "meta_eccentricity": 7.222e-05,
        "meta_inclination": 43.0004,
        "meta_ra_of_asc_node": 39.8812,
        "meta_arg_of_pericenter": 302.2289,
        "meta_mean_anomaly": 272.2099,
        "meta_ephemeris_type": 0,
        "meta_classification_type": "U",
        "meta_norad_cat_id": 66584,
        "meta_element_set_no": 999,
        "meta_rev_at_epoch": 607,
        "meta_bstar": -0.044797112,
        "meta_mean_motion_dot": -0.02005587,
        "meta_mean_motion_ddot": 0,
        "tle_line1": "1 66584U 25268AD  25360.58337963 -.02005587  00000+0 -44797-1 0  9992",
        "tle_line2": "2 66584  43.0004  39.8812 0000722 302.2289 272.2099 15.46140650  6076"
      },
      "geometry": {
        "type": "Point",
        "coordinates": [
          55.25840915884028,
          14.972688834446092
        ]
      }
    },
    {
      "type": "Feature",
      "properties": {
        "norad_id": 66585,
        "name": "STARLINK-35963",
        "group": "last-30-days",
        "lat": -9.737126582826278,
        "lon": -130.34970579600812,
        "alt_km": 470.8684424397643,
        "timestamp": "2025-12-26T19:22:37.603730+00:00",
        "meta_object_name": "STARLINK-35963",
        "meta_object_id": "2025-268AE",
        "meta_epoch": "2025-12-26T14:00:04.000032",
        "meta_mean_motion": 15.32844698,
        "meta_eccentricity": 0.0001553,
        "meta_inclination": 43.0009,
        "meta_ra_of_asc_node": 40.314,
        "meta_arg_of_pericenter": 270.4812,
        "meta_mean_anomaly": 126.6589,
        "meta_ephemeris_type": 0,
        "meta_classification_type": "U",
        "meta_norad_cat_id": 66585,
        "meta_element_set_no": 999,
        "meta_rev_at_epoch": 607,
        "meta_bstar": -0.067265916,
        "meta_mean_motion_dot": -0.01943147,
        "meta_mean_motion_ddot": 0,
        "tle_line1": "1 66585U 25268AE  25360.58337963 -.01943147  00000+0 -67266-1 0  9991",
        "tle_line2": "2 66585  43.0009  40.3140 0001553 270.4812 126.6589 15.32844698  6078"
      },
      "geometry": {
        "type": "Point",
        "coordinates": [
          -130.34970579600812,
          -9.737126582826278
        ]
      }
    },
    {
      "type": "Feature",
      "properties": {
        "norad_id": 66586,
        "name": "TJS-21",
        "group": "last-30-days",
        "lat": 56.75749454590804,
        "lon": -148.9053125891058,
        "alt_km": 33062.19955293876,
        "timestamp": "2025-12-26T19:22:37.603743+00:00",
        "meta_object_name": "TJS-21",
        "meta_object_id": "2025-269A",
        "meta_epoch": "2025-12-18T16:58:10.473888",
        "meta_mean_motion": 2.00580748,
        "meta_eccentricity": 0.6806869,
        "meta_inclination": 63.2733,
        "meta_ra_of_asc_node": 161.7218,
        "meta_arg_of_pericenter": 269.7428,
        "meta_mean_anomaly": 18.6663,
        "meta_ephemeris_type": 0,
        "meta_classification_type": "U",
        "meta_norad_cat_id": 66586,
        "meta_element_set_no": 999,
        "meta_rev_at_epoch": 55,
        "meta_bstar": -0.059507049,
        "meta_mean_motion_dot": 1.084e-05,
        "meta_mean_motion_ddot": 0,
        "tle_line1": "1 66586U 25269A   25352.70706567  .00001084  00000+0 -59507-1 0  9990",
        "tle_line2": "2 66586  63.2733 161.7218 6806869 269.7428  18.6663  2.00580748   558"
      },
      "geometry": {
        "type": "Point",
        "coordinates": [
          -148.9053125891058,
          56.75749454590804
        ]
      }
    },
    {
      "type": "Feature",
      "properties": {
        "norad_id": 66588,
        "name": "STARLINK-36076",
        "group": "last-30-days",
        "lat": 7.583166746804492,
        "lon": 119.9383747634596,
        "alt_km": 441.9986452671028,
        "timestamp": "2025-12-26T19:22:37.603759+00:00",
        "meta_object_name": "STARLINK-36076",
        "meta_object_id": "2025-270A",
        "meta_epoch": "2025-12-26T14:39:40.692960",
        "meta_mean_motion": 15.40711911,
        "meta_eccentricity": 0.00028476,
        "meta_inclination": 42.9974,
        "meta_ra_of_asc_node": 112.8566,
        "meta_arg_of_pericenter": 300.8003,
        "meta_mean_anomaly": 59.2573,
        "meta_ephemeris_type": 0,
        "meta_classification_type": "U",
        "meta_norad_cat_id": 66588,
        "meta_element_set_no": 999,
        "meta_rev_at_epoch": 648,
        "meta_bstar": 0.0010138671,
        "meta_mean_motion_dot": 0.00042303,
        "meta_mean_motion_ddot": 0,
        "tle_line1": "1 66588U 25270A   25360.61088765  .00042303  00000+0  10139-2 0  9993",
        "tle_line2": "2 66588  42.9974 112.8566 0002847 300.8003  59.2573 15.40711911  6483"
      },
      "geometry": {
        "type": "Point",
        "coordinates": [
          119.9383747634596,
          7.583166746804492
        ]
      }
    },
    {
      "type": "Feature",
      "properties": {
        "norad_id": 66589,
        "name": "STARLINK-35447",
        "group": "last-30-days",
        "lat": 39.53801929124889,
        "lon": -130.86977976067797,
        "alt_km": 438.2308161752253,
        "timestamp": "2025-12-26T19:22:37.603769+00:00",
        "meta_object_name": "STARLINK-35447",
        "meta_object_id": "2025-270B",
        "meta_epoch": "2025-12-25T14:53:33.760896",
        "meta_mean_motion": 15.4069884,
        "meta_eccentricity": 0.0001173,
        "meta_inclination": 43.0008,
        "meta_ra_of_asc_node": 118.3206,
        "meta_arg_of_pericenter": 257.0782,
        "meta_mean_anomaly": 102.9943,
        "meta_ephemeris_type": 0,
        "meta_classification_type": "U",
        "meta_norad_cat_id": 66589,
        "meta_element_set_no": 999,
        "meta_rev_at_epoch": 644,
        "meta_bstar": 0.00080611,
        "meta_mean_motion_dot": 0.00033516,
        "meta_mean_motion_ddot": 0,
        "tle_line1": "1 66589U 25270B   25359.62052964  .00033516  00000+0  80611-3 0  9994",
        "tle_line2": "2 66589  43.0008 118.3206 0001173 257.0782 102.9943 15.40698840  6442"
      },
      "geometry": {
        "type": "Point",
        "coordinates": [
          -130.86977976067797,
          39.53801929124889
        ]
      }
    }
  ]
}